[{"OBJECT_NAME":"SWAS","OBJECT_ID":"1998-071A","EPOCH":"2026-03-09T12:50:12.826752","MEAN_MOTION":15.08888192,"ECCENTRICITY":0.00040991,"INCLINATION":69.8952,"RA_OF_ASC_NODE":124.3662,"ARG_OF_PERICENTER":14.3215,"MEAN_ANOMALY":345.8065,"EPHEMERIS_TYPE":0,"CLASSIFICATION_TYPE":"U","NORAD_CAT_ID":25560,"ELEMENT_SET_NO":999,"REV_AT_EPOCH":48223,"BSTAR":0.00029986322,"MEAN_MOTION_DOT":4.636e-5,"MEAN_MOTION_DDOT":0},{"OBJECT_NAME":"STARLINK-5237","OBJECT_ID":"2022-141AR","EPOCH":"2026-03-08T23:43:12.359136","MEAN_MOTION":15.08834766,"ECCENTRICITY":0.00012983,"INCLINATION":53.2195,"RA_OF_ASC_NODE":357.1519,"ARG_OF_PERICENTER":106.034,"MEAN_ANOMALY":254.0795,"EPHEMERIS_TYPE":0,"CLASSIFICATION_TYPE":"U","NORAD_CAT_ID":54196,"ELEMENT_SET_NO":999,"REV_AT_EPOCH":18589,"BSTAR":-2.0420605e-5,"MEAN_MOTION_DOT":-6.13e-6,"MEAN_MOTION_DDOT":0}]
